{"type": "FeatureCollection", "features": [ {"type": "Feature", "properties": {"norad_id": 66767, "name": "TRANSPORTER-15DF", "group": "last-30-days", "lat": 63.74059772085801, "lon": 54.63685225874703, "alt_km": 503.3273389015076, "timestamp": "2025-12-24T09:46:29.715440+00:00", "meta": {"OBJECT_NAME": "TRANSPORTER-15DF", "OBJECT_ID": "2025-276DF", "EPOCH": "2025-12-24T03:09:50.849856", "MEAN_MOTION": 15.18336593, "ECCENTRICITY": 0.0002106, "INCLINATION": 97.4368, "RA_OF_ASC_NODE": 69.719, "ARG_OF_PERICENTER": 88.6481, "MEAN_ANOMALY": 271.4994, "EPHEMERIS_TYPE": 0, "CLASSIFICATION_TYPE": "U", "NORAD_CAT_ID": 66767, "ELEMENT_SET_NO": 999, "REV_AT_EPOCH": 385, "BSTAR": 0.00041742, "MEAN_MOTION_DOT": 8.506e-05, "MEAN_MOTION_DDOT": 0}, "tle": {"line1": "1 66767U 25276DF  25358.13183854  .00008506  00000+0  41742-3 0  9999", "line2": "2 66767  97.4368  69.7190 0002106  88.6481 271.4994 15.18336593  3853"}}, "geometry": {"type": "Point", "coordinates": [54.63685225874703, 63.74059772085801]}}, {"type": "Feature", "properties": {"norad_id": 66768, "name": "TRANSPORTER-15DG", "group": "last-30-days", "lat": 75.41010034475961, "lon": 39.87627779537856, "alt_km": 501.5319074809604, "timestamp": "2025-12-24T09:46:29.715450+00:00", "meta": {"OBJECT_NAME": "TRANSPORTER-15DG", "OBJECT_ID": "2025-276DG", "EPOCH": "2025-12-24T03:06:34.233696", "MEAN_MOTION": 15.18540276, "ECCENTRICITY": 0.0002262, "INCLINATION": 97.4355, "RA_OF_ASC_NODE": 69.7182, "ARG_OF_PERICENTER": 77.7325, "MEAN_ANOMALY": 282.4163, "EPHEMERIS_TYPE": 0, "CLASSIFICATION_TYPE": "U", "NORAD_CAT_ID": 66768, "ELEMENT_SET_NO": 999, "REV_AT_EPOCH": 385, "BSTAR": 0.00054445, "MEAN_MOTION_DOT": 0.00011185, "MEAN_MOTION_DDOT": 0}, "tle": {"line1": "1 66768U 25276DG  25358.12956289  .00011185  00000+0  54445-3 0  9990", "line2": "2 66768  97.4355  69.7182 0002262  77.7325 282.4163 15.18540276  3855"}}, "geometry": {"type": "Point", "coordinates": [39.87627779537856, 75.41010034475961]}}, {"type": "Feature", "properties": {"norad_id": 66769, "name": "TRANSPORTER-15DH", "group": "last-30-days", "lat": 70.44611757716041, "lon": 48.41540844836147, "alt_km": 502.2308207799788, "timestamp": "2025-12-24T09:46:29.715460+00:00", "meta": {"OBJECT_NAME": "TRANSPORTER-15DH", "OBJECT_ID": "2025-276DH", "EPOCH": "2025-12-24T03:07:59.621088", "MEAN_MOTION": 15.18416426, "ECCENTRICITY": 0.0002722, "INCLINATION": 97.4416, "RA_OF_ASC_NODE": 69.7357, "ARG_OF_PERICENTER": 105.0293, "MEAN_ANOMALY": 255.1242, "EPHEMERIS_TYPE": 0, "CLASSIFICATION_TYPE": "U", "NORAD_CAT_ID": 66769, "ELEMENT_SET_NO": 999, "REV_AT_EPOCH": 385, "BSTAR": 0.00029868, "MEAN_MOTION_DOT": 6.08e-05, "MEAN_MOTION_DDOT": 0}, "tle": {"line1": "1 66769U 25276DH  25358.13055117  .00006080  00000+0  29868-3 0  9991", "line2": "2 66769  97.4416  69.7357 0002722 105.0293 255.1242 15.18416426  3852"}}, "geometry": {"type": "Point", "coordinates": [48.41540844836147, 70.44611757716041]}}, {"type": "Feature", "properties": {"norad_id": 66770, "name": "TRANSPORTER-15DJ", "group": "last-30-days", "lat": 72.03371341842089, "lon": 46.2375664341117, "alt_km": 502.11834462207935, "timestamp": "2025-12-24T09:46:29.715472+00:00", "meta": {"OBJECT_NAME": "TRANSPORTER-15DJ", "OBJECT_ID": "2025-276DJ", "EPOCH": "2025-12-24T03:07:31.859040", "MEAN_MOTION": 15.18400722, "ECCENTRICITY": 0.0003342, "INCLINATION": 97.4447, "RA_OF_ASC_NODE": 69.7464, "ARG_OF_PERICENTER": 119.8153, "MEAN_ANOMALY": 240.3414, "EPHEMERIS_TYPE": 0, "CLASSIFICATION_TYPE": "U", "NORAD_CAT_ID": 66770, "ELEMENT_SET_NO": 999, "REV_AT_EPOCH": 385, "BSTAR": 0.00044015, "MEAN_MOTION_DOT": 8.991e-05, "MEAN_MOTION_DDOT": 0}, "tle": {"line1": "1 66770U 25276DJ  25358.13022985  .00008991  00000+0  44015-3 0  9994", "line2": "2 66770  97.4447  69.7464 0003342 119.8153 240.3414 15.18400722  3853"}}, "geometry": {"type": "Point", "coordinates": [46.2375664341117, 72.03371341842089]}}, {"type": "Feature", "properties": {"norad_id": 66771, "name": "TRANSPORTER-15DK", "group": "last-30-days", "lat": 74.51534415574214, "lon": 41.85604327551193, "alt_km": 501.58398183646204, "timestamp": "2025-12-24T09:46:29.715482+00:00", "meta": {"OBJECT_NAME": "TRANSPORTER-15DK", "OBJECT_ID": "2025-276DK", "EPOCH": "2025-12-24T03:06:49.389120", "MEAN_MOTION": 15.18485468, "ECCENTRICITY": 0.0003052, "INCLINATION": 97.4441, "RA_OF_ASC_NODE": 69.7447, "ARG_OF_PERICENTER": 112.1124, "MEAN_ANOMALY": 248.0434, "EPHEMERIS_TYPE": 0, "CLASSIFICATION_TYPE": "U", "NORAD_CAT_ID": 66771, "ELEMENT_SET_NO": 999, "REV_AT_EPOCH": 385, "BSTAR": 0.00051708, "MEAN_MOTION_DOT": 0.00010602, "MEAN_MOTION_DDOT": 0}, "tle": {"line1": "1 66771U 25276DK  25358.12973830  .00010602  00000+0  51708-3 0  9997", "line2": "2 66771  97.4441  69.7447 0003052 112.1124 248.0434 15.18485468  3858"}}, "geometry": {"type": "Point", "coordinates": [41.85604327551193, 74.51534415574214]}}, {"type": "Feature", "properties": {"norad_id": 66772, "name": "TRANSPORTER-15DL", "group": "last-30-days", "lat": 82.54500961157733, "lon": -22.397404537229455, "alt_km": 500.22485292857164, "timestamp": "2025-12-24T09:46:29.715492+00:00", "meta": {"OBJECT_NAME": "TRANSPORTER-15DL", "OBJECT_ID": "2025-276DL", "EPOCH": "2025-12-24T03:03:13.237920", "MEAN_MOTION": 15.18701758, "ECCENTRICITY": 0.0003019, "INCLINATION": 97.4433, "RA_OF_ASC_NODE": 69.7446, "ARG_OF_PERICENTER": 100.3817, "MEAN_ANOMALY": 259.7758, "EPHEMERIS_TYPE": 0, "CLASSIFICATION_TYPE": "U", "NORAD_CAT_ID": 66772, "ELEMENT_SET_NO": 999, "REV_AT_EPOCH": 385, "BSTAR": 0.00043045, "MEAN_MOTION_DOT": 8.868e-05, "MEAN_MOTION_DDOT": 0}, "tle": {"line1": "1 66772U 25276DL  25358.12723655  .00008868  00000+0  43045-3 0  9992", "line2": "2 66772  97.4433  69.7446 0003019 100.3817 259.7758 15.18701758  3851"}}, "geometry": {"type": "Point", "coordinates": [-22.397404537229455, 82.54500961157733]}}, {"type": "Feature", "properties": {"norad_id": 66773, "name": "TRANSPORTER-15DM", "group": "last-30-days", "lat": 79.76135868761126, "lon": 23.65098976790128, "alt_km": 500.73501444742396, "timestamp": "2025-12-24T09:46:29.715502+00:00", "meta": {"OBJECT_NAME": "TRANSPORTER-15DM", "OBJECT_ID": "2025-276DM", "EPOCH": "2025-12-24T03:05:06.820224", "MEAN_MOTION": 15.18542162, "ECCENTRICITY": 0.0003211, "INCLINATION": 97.4428, "RA_OF_ASC_NODE": 69.742, "ARG_OF_PERICENTER": 99.8341, "MEAN_ANOMALY": 260.3256, "EPHEMERIS_TYPE": 0, "CLASSIFICATION_TYPE": "U", "NORAD_CAT_ID": 66773, "ELEMENT_SET_NO": 999, "REV_AT_EPOCH": 385, "BSTAR": 0.00047813, "MEAN_MOTION_DOT": 9.813e-05, "MEAN_MOTION_DDOT": 0}, "tle": {"line1": "1 66773U 25276DM  25358.12855116  .00009813  00000+0  47813-3 0  9999", "line2": "2 66773  97.4428  69.7420 0003211  99.8341 260.3256 15.18542162  3859"}}, "geometry": {"type": "Point", "coordinates": [23.65098976790128, 79.76135868761126]}}, {"type": "Feature", "properties": {"norad_id": 66774, "name": "TRANSPORTER-15DN", "group": "last-30-days", "lat": 81.54152136125107, "lon": 8.500354265420194, "alt_km": 500.5466483125256, "timestamp": "2025-12-24T09:46:29.715514+00:00", "meta": {"OBJECT_NAME": "TRANSPORTER-15DN", "OBJECT_ID": "2025-276DN", "EPOCH": "2025-12-24T03:04:20.013024", "MEAN_MOTION": 15.18597082, "ECCENTRICITY": 0.0003076, "INCLINATION": 97.4415, "RA_OF_ASC_NODE": 69.7383, "ARG_OF_PERICENTER": 97.3893, "MEAN_ANOMALY": 262.7691, "EPHEMERIS_TYPE": 0, "CLASSIFICATION_TYPE": "U", "NORAD_CAT_ID": 66774, "ELEMENT_SET_NO": 999, "REV_AT_EPOCH": 385, "BSTAR": 0.00036858, "MEAN_MOTION_DOT": 7.559e-05, "MEAN_MOTION_DDOT": 0}, "tle": {"line1": "1 66774U 25276DN  25358.12800941  .00007559  00000+0  36858-3 0  9998", "line2": "2 66774  97.4415  69.7383 0003076  97.3893 262.7691 15.18597082  3858"}}, "geometry": {"type": "Point", "coordinates": [8.500354265420194, 81.54152136125107]}}, {"type": "Feature", "properties": {"norad_id": 66775, "name": "PHI 1", "group": "last-30-days", "lat": 82.53894827568777, "lon": -24.436602032887823, "alt_km": 500.6118175943275, "timestamp": "2025-12-24T09:46:29.715524+00:00", "meta": {"OBJECT_NAME": "PHI 1", "OBJECT_ID": "2025-276DP", "EPOCH": "2025-12-24T03:03:08.809056", "MEAN_MOTION": 15.18667014, "ECCENTRICITY": 0.000284, "INCLINATION": 97.4339, "RA_OF_ASC_NODE": 69.7169, "ARG_OF_PERICENTER": 66.2802, "MEAN_ANOMALY": 293.873, "EPHEMERIS_TYPE": 0, "CLASSIFICATION_TYPE": "U", "NORAD_CAT_ID": 66775, "ELEMENT_SET_NO": 999, "REV_AT_EPOCH": 385, "BSTAR": 0.00051665, "MEAN_MOTION_DOT": 0.00010649, "MEAN_MOTION_DDOT": 0}, "tle": {"line1": "1 66775U 25276DP  25358.12718529  .00010649  00000+0  51665-3 0  9996", "line2": "2 66775  97.4339  69.7169 0002840  66.2802 293.8730 15.18667014  3851"}}, "geometry": {"type": "Point", "coordinates": [-24.436602032887823, 82.53894827568777]}}, {"type": "Feature", "properties": {"norad_id": 66776, "name": "TRANSPORTER-15DQ", "group": "last-30-days", "lat": 82.05528528785432, "lon": -40.58646347400497, "alt_km": 500.2674714570603, "timestamp": "2025-12-24T09:46:29.715534+00:00", "meta": {"OBJECT_NAME": "TRANSPORTER-15DQ", "OBJECT_ID": "2025-276DQ", "EPOCH": "2025-12-24T03:02:34.562688", "MEAN_MOTION": 15.1871218, "ECCENTRICITY": 0.0002943, "INCLINATION": 97.4379, "RA_OF_ASC_NODE": 69.729, "ARG_OF_PERICENTER": 82.9945, "MEAN_ANOMALY": 277.1624, "EPHEMERIS_TYPE": 0, "CLASSIFICATION_TYPE": "U", "NORAD_CAT_ID": 66776, "ELEMENT_SET_NO": 999, "REV_AT_EPOCH": 385, "BSTAR": 0.00053716, "MEAN_MOTION_DOT": 0.00011089, "MEAN_MOTION_DDOT": 0}, "tle": {"line1": "1 66776U 25276DQ  25358.12678892  .00011089  00000+0  53716-3 0  9993", "line2": "2 66776  97.4379  69.7290 0002943  82.9945 277.1624 15.18712180  3850"}}, "geometry": {"type": "Point", "coordinates": [-40.58646347400497, 82.05528528785432]}}]}